[{"OBJECT_NAME":"VIGORIDE-3","OBJECT_ID":"2022-057AE","EPOCH":"2026-03-09T22:06:57.048768","MEAN_MOTION":15.2610122,"ECCENTRICITY":0.00097778,"INCLINATION":97.6431,"RA_OF_ASC_NODE":206.4459,"ARG_OF_PERICENTER":111.2279,"MEAN_ANOMALY":249.0004,"EPHEMERIS_TYPE":0,"CLASSIFICATION_TYPE":"U","NORAD_CAT_ID":52760,"ELEMENT_SET_NO":999,"REV_AT_EPOCH":21001,"BSTAR":0.00033325795,"MEAN_MOTION_DOT":8.532e-5,"MEAN_MOTION_DDOT":0},{"OBJECT_NAME":"STARLINK-31961","OBJECT_ID":"2024-100K","EPOCH":"2026-03-09T12:46:16.818240","MEAN_MOTION":15.275734,"ECCENTRICITY":0.00013201,"INCLINATION":43.0038,"RA_OF_ASC_NODE":119.2911,"ARG_OF_PERICENTER":250.1404,"MEAN_ANOMALY":109.9306,"EPHEMERIS_TYPE":0,"CLASSIFICATION_TYPE":"U","NORAD_CAT_ID":59894,"ELEMENT_SET_NO":999,"REV_AT_EPOCH":10121,"BSTAR":-3.8820697e-5,"MEAN_MOTION_DOT":-1.33e-5,"MEAN_MOTION_DDOT":0}]
